[{"OBJECT_NAME":"STARLINK-32396","OBJECT_ID":"2024-191N","EPOCH":"2026-03-09T22:39:02.158272","MEAN_MOTION":15.27574185,"ECCENTRICITY":2.828e-5,"INCLINATION":42.9978,"RA_OF_ASC_NODE":156.6776,"ARG_OF_PERICENTER":241.7519,"MEAN_ANOMALY":118.3304,"EPHEMERIS_TYPE":0,"CLASSIFICATION_TYPE":"U","NORAD_CAT_ID":61633,"ELEMENT_SET_NO":999,"REV_AT_EPOCH":7753,"BSTAR":2.5555441e-5,"MEAN_MOTION_DOT":4.42e-6,"MEAN_MOTION_DDOT":0},{"OBJECT_NAME":"TEVEL2-1","OBJECT_ID":"2025-052H","EPOCH":"2026-03-09T15:32:51.927072","MEAN_MOTION":15.30341923,"ECCENTRICITY":0.0004767,"INCLINATION":97.3991,"RA_OF_ASC_NODE":324.7682,"ARG_OF_PERICENTER":104.8919,"MEAN_ANOMALY":255.2849,"EPHEMERIS_TYPE":0,"CLASSIFICATION_TYPE":"U","NORAD_CAT_ID":63217,"ELEMENT_SET_NO":999,"REV_AT_EPOCH":5485,"BSTAR":0.000706,"MEAN_MOTION_DOT":0.00020683,"MEAN_MOTION_DDOT":0}]
